{"type": "FeatureCollection", "features": [ {"type": "Feature", "properties": {"norad_id": 41018, "name": "FENGYUN 1C DEB", "group": "fengyun-1c-debris", "lat": 69.21903065400241, "lon": 131.46812417768584, "alt_km": 857.5603408273446, "timestamp": "2025-12-05T14:45:15.589338+00:00", "meta": {"OBJECT_NAME": "FENGYUN 1C DEB", "OBJECT_ID": "1999-025EXY", "EPOCH": "2025-11-14T13:55:42.109536", "MEAN_MOTION": 13.52269451, "ECCENTRICITY": 0.03030631, "INCLINATION": 99.9325, "RA_OF_ASC_NODE": 262.8906, "ARG_OF_PERICENTER": 189.0805, "MEAN_ANOMALY": 170.4772, "EPHEMERIS_TYPE": 0, "CLASSIFICATION_TYPE": "U", "NORAD_CAT_ID": 41018, "ELEMENT_SET_NO": 999, "REV_AT_EPOCH": 87794, "BSTAR": 0.0023936359, "MEAN_MOTION_DOT": 2.062e-05, "MEAN_MOTION_DDOT": 0}, "tle": {"line1": "1 41018U 99025EXY 25318.58034849  .00002062  00000+0  23936-2 0  9993", "line2": "2 41018  99.9325 262.8906 0303063 189.0805 170.4772 13.52269451877943"}}, "geometry": {"type": "Point", "coordinates": [131.46812417768584, 69.21903065400241]}}, {"type": "Feature", "properties": {"norad_id": 41822, "name": "FENGYUN 1C DEB", "group": "fengyun-1c-debris", "lat": 80.0880411542482, "lon": -72.53692333531208, "alt_km": 834.7036467480457, "timestamp": "2025-12-05T14:45:15.589348+00:00", "meta": {"OBJECT_NAME": "FENGYUN 1C DEB", "OBJECT_ID": "1999-025EXZ", "EPOCH": "2025-12-03T03:18:49.388832", "MEAN_MOTION": 14.24679698, "ECCENTRICITY": 0.00547838, "INCLINATION": 98.7332, "RA_OF_ASC_NODE": 43.4001, "ARG_OF_PERICENTER": 248.0214, "MEAN_ANOMALY": 111.5138, "EPHEMERIS_TYPE": 0, "CLASSIFICATION_TYPE": "U", "NORAD_CAT_ID": 41822, "ELEMENT_SET_NO": 999, "REV_AT_EPOCH": 47236, "BSTAR": 0.0021587019, "MEAN_MOTION_DOT": 5.059e-05, "MEAN_MOTION_DDOT": 0}, "tle": {"line1": "1 41822U 99025EXZ 25337.13807163  .00005059  00000+0  21587-2 0  9994", "line2": "2 41822  98.7332  43.4001 0054783 248.0214 111.5138 14.24679698472369"}}, "geometry": {"type": "Point", "coordinates": [-72.53692333531208, 80.0880411542482]}}, {"type": "Feature", "properties": {"norad_id": 41823, "name": "FENGYUN 1C DEB", "group": "fengyun-1c-debris", "lat": -18.271999747744793, "lon": -139.90167037048778, "alt_km": 793.6721519196035, "timestamp": "2025-12-05T14:45:15.589358+00:00", "meta": {"OBJECT_NAME": "FENGYUN 1C DEB", "OBJECT_ID": "1999-025EYA", "EPOCH": "2025-12-04T15:53:20.954112", "MEAN_MOTION": 14.23434992, "ECCENTRICITY": 0.0054302, "INCLINATION": 98.7216, "RA_OF_ASC_NODE": 42.0594, "ARG_OF_PERICENTER": 251.5698, "MEAN_ANOMALY": 107.9573, "EPHEMERIS_TYPE": 0, "CLASSIFICATION_TYPE": "U", "NORAD_CAT_ID": 41823, "ELEMENT_SET_NO": 999, "REV_AT_EPOCH": 47243, "BSTAR": 0.0032643, "MEAN_MOTION_DOT": 7.489e-05, "MEAN_MOTION_DDOT": 0}, "tle": {"line1": "1 41823U 99025EYA 25338.66204808  .00007489  00000+0  32643-2 0  9995", "line2": "2 41823  98.7216  42.0594 0054302 251.5698 107.9573 14.23434992472430"}}, "geometry": {"type": "Point", "coordinates": [-139.90167037048778, -18.271999747744793]}}, {"type": "Feature", "properties": {"norad_id": 41824, "name": "FENGYUN 1C DEB", "group": "fengyun-1c-debris", "lat": 46.851933099762185, "lon": 34.25005059342281, "alt_km": 845.5711900329516, "timestamp": "2025-12-05T14:45:15.589369+00:00", "meta": {"OBJECT_NAME": "FENGYUN 1C DEB", "OBJECT_ID": "1999-025EYB", "EPOCH": "2025-12-03T03:30:36.467424", "MEAN_MOTION": 14.24047096, "ECCENTRICITY": 0.00564381, "INCLINATION": 98.7333, "RA_OF_ASC_NODE": 41.2364, "ARG_OF_PERICENTER": 254.7318, "MEAN_ANOMALY": 104.7617, "EPHEMERIS_TYPE": 0, "CLASSIFICATION_TYPE": "U", "NORAD_CAT_ID": 41824, "ELEMENT_SET_NO": 999, "REV_AT_EPOCH": 47223, "BSTAR": 0.0020826395, "MEAN_MOTION_DOT": 4.823e-05, "MEAN_MOTION_DDOT": 0}, "tle": {"line1": "1 41824U 99025EYB 25337.14625541  .00004823  00000+0  20826-2 0  9998", "line2": "2 41824  98.7333  41.2364 0056438 254.7318 104.7617 14.24047096472231"}}, "geometry": {"type": "Point", "coordinates": [34.25005059342281, 46.851933099762185]}}, {"type": "Feature", "properties": {"norad_id": 41825, "name": "FENGYUN 1C DEB", "group": "fengyun-1c-debris", "lat": -65.55742947068585, "lon": -151.12181352998255, "alt_km": 776.9262071063695, "timestamp": "2025-12-05T14:45:15.589379+00:00", "meta": {"OBJECT_NAME": "FENGYUN 1C DEB", "OBJECT_ID": "1999-025EYC", "EPOCH": "2025-12-03T04:18:00.149760", "MEAN_MOTION": 14.24970955, "ECCENTRICITY": 0.00543125, "INCLINATION": 98.7429, "RA_OF_ASC_NODE": 46.2424, "ARG_OF_PERICENTER": 247.2858, "MEAN_ANOMALY": 112.2575, "EPHEMERIS_TYPE": 0, "CLASSIFICATION_TYPE": "U", "NORAD_CAT_ID": 41825, "ELEMENT_SET_NO": 999, "REV_AT_EPOCH": 47212, "BSTAR": 0.0026848225, "MEAN_MOTION_DOT": 6.338e-05, "MEAN_MOTION_DDOT": 0}, "tle": {"line1": "1 41825U 99025EYC 25337.17916840  .00006338  00000+0  26848-2 0  9990", "line2": "2 41825  98.7429  46.2424 0054312 247.2858 112.2575 14.24970955472129"}}, "geometry": {"type": "Point", "coordinates": [-151.12181352998255, -65.55742947068585]}}, {"type": "Feature", "properties": {"norad_id": 41826, "name": "FENGYUN 1C DEB", "group": "fengyun-1c-debris", "lat": -71.12999184560339, "lon": -161.27147277196, "alt_km": 781.044618649159, "timestamp": "2025-12-05T14:45:15.589389+00:00", "meta": {"OBJECT_NAME": "FENGYUN 1C DEB", "OBJECT_ID": "1999-025EYD", "EPOCH": "2025-12-04T15:38:19.862592", "MEAN_MOTION": 14.23663434, "ECCENTRICITY": 0.0055166, "INCLINATION": 98.7346, "RA_OF_ASC_NODE": 44.5031, "ARG_OF_PERICENTER": 246.686, "MEAN_ANOMALY": 112.8507, "EPHEMERIS_TYPE": 0, "CLASSIFICATION_TYPE": "U", "NORAD_CAT_ID": 41826, "ELEMENT_SET_NO": 999, "REV_AT_EPOCH": 47245, "BSTAR": 0.0031602, "MEAN_MOTION_DOT": 7.285e-05, "MEAN_MOTION_DDOT": 0}, "tle": {"line1": "1 41826U 99025EYD 25338.65161878  .00007285  00000+0  31602-2 0  9994", "line2": "2 41826  98.7346  44.5031 0055166 246.6860 112.8507 14.23663434472454"}}, "geometry": {"type": "Point", "coordinates": [-161.27147277196, -71.12999184560339]}}, {"type": "Feature", "properties": {"norad_id": 41827, "name": "FENGYUN 1C DEB", "group": "fengyun-1c-debris", "lat": 69.23743532902431, "lon": -107.2018578038532, "alt_km": 824.6802345224696, "timestamp": "2025-12-05T14:45:15.589400+00:00", "meta": {"OBJECT_NAME": "FENGYUN 1C DEB", "OBJECT_ID": "1999-025EYE", "EPOCH": "2025-12-04T11:16:51.707424", "MEAN_MOTION": 14.25172655, "ECCENTRICITY": 0.0057739, "INCLINATION": 98.7443, "RA_OF_ASC_NODE": 47.7054, "ARG_OF_PERICENTER": 237.1053, "MEAN_ANOMALY": 122.4563, "EPHEMERIS_TYPE": 0, "CLASSIFICATION_TYPE": "U", "NORAD_CAT_ID": 41827, "ELEMENT_SET_NO": 999, "REV_AT_EPOCH": 47213, "BSTAR": 0.0038636, "MEAN_MOTION_DOT": 9.199e-05, "MEAN_MOTION_DDOT": 0}, "tle": {"line1": "1 41827U 99025EYE 25338.47004291  .00009199  00000+0  38636-2 0  9990", "line2": "2 41827  98.7443  47.7054 0057739 237.1053 122.4563 14.25172655472136"}}, "geometry": {"type": "Point", "coordinates": [-107.2018578038532, 69.23743532902431]}}, {"type": "Feature", "properties": {"norad_id": 41828, "name": "FENGYUN 1C DEB", "group": "fengyun-1c-debris", "lat": 50.3683702487271, "lon": 96.28998108506944, "alt_km": 739.837967662018, "timestamp": "2025-12-05T14:45:15.589410+00:00", "meta": {"OBJECT_NAME": "FENGYUN 1C DEB", "OBJECT_ID": "1999-025EYF", "EPOCH": "2025-12-04T07:04:40.139328", "MEAN_MOTION": 14.51172954, "ECCENTRICITY": 0.0039998, "INCLINATION": 98.9227, "RA_OF_ASC_NODE": 105.8253, "ARG_OF_PERICENTER": 200.0592, "MEAN_ANOMALY": 159.9031, "EPHEMERIS_TYPE": 0, "CLASSIFICATION_TYPE": "U", "NORAD_CAT_ID": 41828, "ELEMENT_SET_NO": 999, "REV_AT_EPOCH": 47341, "BSTAR": 0.014087, "MEAN_MOTION_DOT": 0.00056925, "MEAN_MOTION_DDOT": 0}, "tle": {"line1": "1 41828U 99025EYF 25338.29490902  .00056925  00000+0  14087-1 0  9991", "line2": "2 41828  98.9227 105.8253 0039998 200.0592 159.9031 14.51172954473418"}}, "geometry": {"type": "Point", "coordinates": [96.28998108506944, 50.3683702487271]}}, {"type": "Feature", "properties": {"norad_id": 41829, "name": "FENGYUN 1C DEB", "group": "fengyun-1c-debris", "lat": -76.92340332587737, "lon": -172.65389551669273, "alt_km": 777.9999461828247, "timestamp": "2025-12-05T14:45:15.589420+00:00", "meta": {"OBJECT_NAME": "FENGYUN 1C DEB", "OBJECT_ID": "1999-025EYG", "EPOCH": "2025-12-04T15:37:43.339584", "MEAN_MOTION": 14.25032628, "ECCENTRICITY": 0.0055979, "INCLINATION": 98.7455, "RA_OF_ASC_NODE": 47.8932, "ARG_OF_PERICENTER": 242.219, "MEAN_ANOMALY": 117.3307, "EPHEMERIS_TYPE": 0, "CLASSIFICATION_TYPE": "U", "NORAD_CAT_ID": 41829, "ELEMENT_SET_NO": 999, "REV_AT_EPOCH": 47192, "BSTAR": 0.0033468, "MEAN_MOTION_DOT": 7.931e-05, "MEAN_MOTION_DDOT": 0}, "tle": {"line1": "1 41829U 99025EYG 25338.65119606  .00007931  00000+0  33468-2 0  9999", "line2": "2 41829  98.7455  47.8932 0055979 242.2190 117.3307 14.25032628471920"}}, "geometry": {"type": "Point", "coordinates": [-172.65389551669273, -76.92340332587737]}}, {"type": "Feature", "properties": {"norad_id": 41830, "name": "FENGYUN 1C DEB", "group": "fengyun-1c-debris", "lat": 44.824838924737236, "lon": 42.78944487858198, "alt_km": 838.128566743887, "timestamp": "2025-12-05T14:45:15.589430+00:00", "meta": {"OBJECT_NAME": "FENGYUN 1C DEB", "OBJECT_ID": "1999-025EYH", "EPOCH": "2025-12-03T00:14:47.938848", "MEAN_MOTION": 14.2631278, "ECCENTRICITY": 0.00539917, "INCLINATION": 98.7543, "RA_OF_ASC_NODE": 48.9961, "ARG_OF_PERICENTER": 244.4093, "MEAN_ANOMALY": 115.1501, "EPHEMERIS_TYPE": 0, "CLASSIFICATION_TYPE": "U", "NORAD_CAT_ID": 41830, "ELEMENT_SET_NO": 999, "REV_AT_EPOCH": 47135, "BSTAR": 0.0023798513, "MEAN_MOTION_DOT": 5.761e-05, "MEAN_MOTION_DDOT": 0}, "tle": {"line1": "1 41830U 99025EYH 25337.01027707  .00005761  00000+0  23799-2 0  9995", "line2": "2 41830  98.7543  48.9961 0053991 244.4093 115.1501 14.26312780471352"}}, "geometry": {"type": "Point", "coordinates": [42.78944487858198, 44.824838924737236]}}]}